     2.100          NAVIGATION                              RINEX VERSION / TYPE
fic2rin                                 01/10/2014 00:45:57 PGM / RUN BY / DATE
                                                            END OF HEADER
32 14  1  9  4  0  0.0 -.504534225911D-03  .557065504836D-11  .000000000000D+00
     .240000000000D+02  .514062500000D+02  .460840624433D-08 -.186942473624D+01
     .254623591900D-05  .115272664698D-01  .103712081909D-04  .515352846718D+04
     .360000000000D+06 -.134110450745D-06  .193830021264D+01 -.145286321640D-06
     .947891664704D+00  .174781250000D+03 -.201836200476D+00 -.805569269479D-08
     .585738684082D-10  .100000000000D+01  .177400000000D+04  .000000000000D+00
     .240000000000D+01  .000000000000D+00 -.325962901115D-08  .240000000000D+02
     .352806000000D+06  .400000000000D+01
 2 14  1  9  3 59 44.0  .471686944366D-03  .216004991671D-11  .000000000000D+00
     .180000000000D+02 -.281250000000D+02  .523271796371D-08 -.110679897302D+01
    -.145472586155D-05  .129698853707D-01  .671297311783D-05  .515378344727D+04
     .359984000000D+06  .406056642532D-06  .782474281697D+00 -.745058059692D-08
     .939108038305D+00  .238531250000D+03 -.251623526744D+01 -.835177645644D-08
    -.175364447490D-09  .100000000000D+01  .177400000000D+04  .000000000000D+00
     .240000000000D+01  .000000000000D+00 -.204890966415D-07  .180000000000D+02
     .352956000000D+06  .400000000000D+01
 1 14  1  9  6  0  0.0  .992640852928D-04  .261479726760D-11  .000000000000D+00
     .470000000000D+02 -.286562500000D+02  .465305096111D-08 -.817869025791D+00
    -.158138573170D-05  .262955657672D-02  .782124698162D-05  .515368116570D+04
     .367200000000D+06  .707805156708D-07  .809002703558D+00  .279396772385D-07
     .960565162480D+00  .229843750000D+03  .415928490165D+00 -.806462163815D-08
    -.236081262304D-09  .100000000000D+01  .177400000000D+04  .000000000000D+00
     .240000000000D+01  .000000000000D+00  .791624188423D-08  .470000000000D+02
     .360006000000D+06  .400000000000D+01
 2 14  1  9  6  0  0.0  .471702311188D-03  .216004991671D-11  .000000000000D+00
     .190000000000D+02 -.265937500000D+02  .538415284301D-08 -.543627555813D-01
    -.134110450745D-05  .129697384546D-01  .686757266521D-05  .515378295898D+04
     .367200000000D+06  .128522515297D-06  .782412966412D+00  .180676579475D-06
     .939105390423D+00  .236875000000D+03 -.251621810887D+01 -.862821654271D-08
    -.217866217860D-09  .100000000000D+01  .177400000000D+04  .000000000000D+00
     .240000000000D+01  .000000000000D+00 -.204890966415D-07  .190000000000D+02
     .360006000000D+06  .400000000000D+01
 3 14  1  9  6  0  0.0  .309989787638D-03  .488853402203D-11  .000000000000D+00
     .135000000000D+03 -.102187500000D+02  .533379360248D-08  .134788172091D+00
    -.325962901115D-06  .167112158379D-01  .726617872715D-05  .515375635147D+04
     .367200000000D+06 -.244006514549D-06 -.390043268033D+00  .800937414169D-07
     .937129767834D+00  .229375000000D+03  .135845165367D+01 -.872607776188D-08
     .195365280605D-09  .100000000000D+01  .177400000000D+04  .000000000000D+00
     .340000000000D+01  .000000000000D+00 -.465661287308D-08  .135000000000D+03
     .360006000000D+06  .400000000000D+01
 4 14  1  9  6  0  0.0  .479910522699D-05  .227373675443D-12  .000000000000D+00
     .108000000000D+03 -.281562500000D+02  .517592988397D-08 -.298011160424D+01
    -.148639082909D-05  .106420771917D-01  .720098614693D-05  .515366773224D+04
     .367200000000D+06  .137835741043D-06  .798575639378D+00 -.949949026108D-07
     .938117184872D+00  .227406250000D+03  .107201650549D+01 -.818141221723D-08
    -.188579283656D-09  .100000000000D+01  .177400000000D+04  .000000000000D+00
     .340000000000D+01  .000000000000D+00 -.651925802231D-08  .108000000000D+03
     .360006000000D+06  .400000000000D+01
 5 14  1  9  6  0  0.0 -.392951536924D-03  .125055521494D-11  .000000000000D+00
     .690000000000D+02  .350312500000D+02  .469876715108D-08  .217196567913D+01
     .180862843990D-05  .352444767486D-02  .106133520603D-04  .515377710915D+04
     .367200000000D+06 -.223517417908D-07  .184938427268D+01 -.167638063431D-07
     .947357170029D+00  .168687500000D+03  .371301401737D+00 -.804854954011D-08
    -.197151069276D-09  .100000000000D+01  .177400000000D+04  .000000000000D+00
     .240000000000D+01  .000000000000D+00 -.102445483208D-07  .690000000000D+02
     .360006000000D+06  .400000000000D+01
 6 14  1  9  6  0  0.0  .228189397603D-03  .155750967679D-10  .000000000000D+00
     .200000000000D+02 -.102500000000D+02  .508914055456D-08  .198744953195D+01
    -.327825546265D-06  .841333623976D-02  .713393092155D-05  .515368476295D+04
     .367200000000D+06  .577419996262D-07 -.308907338545D+00  .208616256714D-06
     .943664260090D+00  .231593750000D+03 -.188594888603D+00 -.833391856973D-08
     .151077721565D-09  .100000000000D+01  .177400000000D+04  .000000000000D+00
     .240000000000D+01  .000000000000D+00 -.512227416039D-08  .200000000000D+02
     .360006000000D+06  .400000000000D+01
 7 14  1  9  6  0  0.0  .300720334053D-03  .420641299570D-11  .000000000000D+00
     .220000000000D+02 -.247812500000D+02  .433803783955D-08 -.138321735141D+01
    -.138767063618D-05  .699212134350D-02  .485219061375D-05  .515365701294D+04
     .367200000000D+06  .596046447754D-07 -.231382937594D+01 -.149011611938D-07
     .974431430032D+00  .289843750000D+03 -.283079201232D+01 -.814855370568D-08
    -.332156692802D-10  .100000000000D+01  .177400000000D+04  .000000000000D+00
     .240000000000D+01  .000000000000D+00 -.107102096081D-07  .220000000000D+02
     .360006000000D+06  .400000000000D+01
 8 14  1  9  6  0  0.0  .111483968794D-04  .227373675443D-12  .000000000000D+00
     .930000000000D+02 -.336875000000D+02  .382087344043D-08 -.195895680756D+01
    -.200793147087D-05  .134416206274D-01  .563822686672D-05  .515365523720D+04
     .367200000000D+06  .143423676491D-06 -.221751195849D+01 -.135973095894D-06
     .997443960893D+00  .289187500000D+03 -.279461432617D+01 -.783854079240D-08
     .160720980388D-10  .100000000000D+01  .177400000000D+04  .000000000000D+00
     .340000000000D+01  .000000000000D+00 -.465661287308D-08  .930000000000D+02
     .360006000000D+06  .400000000000D+01
 9 14  1  9  6  0  0.0  .296670477837D-03  .284217094304D-11  .000000000000D+00
     .520000000000D+02 -.193125000000D+02  .424624830186D-08 -.230129020037D+00
    -.122562050819D-05  .168502866291D-01  .532343983650D-05  .515369704247D+04
     .367200000000D+06 -.236555933952D-06 -.233531550978D+01  .223517417908D-07
     .983007920397D+00  .292593750000D+03  .175859668264D+01 -.837392023596D-08
    -.682171272315D-10  .100000000000D+01  .177400000000D+04  .000000000000D+00
     .340000000000D+01  .000000000000D+00 -.605359673500D-08  .520000000000D+02
     .360006000000D+06  .400000000000D+01
10 14  1  9  6  0  0.0 -.109264627099D-03 -.147792889038D-11  .000000000000D+00
     .900000000000D+02  .399687500000D+02  .469019536546D-08  .252282971593D+01
     .194646418095D-05  .133785641519D-01  .106338411570D-04  .515369665909D+04
     .367200000000D+06  .223517417908D-07  .186746868018D+01 -.219792127609D-06
     .942171473612D+00  .162906250000D+03  .849159681949D+00 -.791425823205D-08
    -.118576367753D-09  .100000000000D+01  .177400000000D+04  .000000000000D+00
     .485000000000D+01  .000000000000D+00 -.279396772385D-08  .900000000000D+02
     .360006000000D+06  .400000000000D+01
11 14  1  9  6  0  0.0 -.454007647932D-03 -.318323145621D-11  .000000000000D+00
     .820000000000D+02 -.243750000000D+02  .646134056934D-08 -.115035814734D+01
    -.108964741230D-05  .147720337845D-01  .607781112194D-05  .515369100952D+04
     .367200000000D+06 -.558793544769D-08  .495288203039D+00  .381842255592D-06
     .890041858090D+00  .222625000000D+03  .125689361309D+01 -.909537885904D-08
    -.117147736816D-09  .100000000000D+01  .177400000000D+04  .000000000000D+00
     .240000000000D+01  .000000000000D+00 -.116415321827D-07  .820000000000D+02
     .360006000000D+06  .400000000000D+01
12 14  1  9  6  0  0.0  .179104506969D-03  .238742359215D-11  .000000000000D+00
     .910000000000D+02 -.519687500000D+02  .395945064130D-08 -.169872685095D+01
    -.261701643467D-05  .470918870997D-02  .867992639542D-05  .515369856834D+04
     .367200000000D+06  .670552253723D-07 -.125222847559D+01 -.502914190292D-07
     .986206991617D+00  .226750000000D+03  .328508781858D+00 -.775318009393D-08
     .161078138122D-09  .100000000000D+01  .177400000000D+04  .000000000000D+00
     .340000000000D+01  .000000000000D+00 -.121071934700D-07  .910000000000D+02
     .360006000000D+06  .400000000000D+01
13 14  1  9  6  0  0.0  .417041592300D-04 -.375166564481D-11  .000000000000D+00
     .600000000000D+02  .675312500000D+02  .416445918073D-08  .991738801285D+00
     .349245965481D-05  .513747683726D-02  .554509460926D-05  .515365314865D+04
     .367200000000D+06  .819563865662D-07  .300424288268D+01 -.137835741043D-06
     .979318644347D+00  .281437500000D+03  .219083383915D+01 -.807462205471D-08
     .148220459691D-09  .100000000000D+01  .177400000000D+04  .000000000000D+00
     .240000000000D+01  .000000000000D+00 -.111758708954D-07  .600000000000D+02
     .360006000000D+06  .400000000000D+01
14 14  1  9  6  0  0.0  .205222051591D-03 -.125055521494D-11  .000000000000D+00
     .150000000000D+02  .671875000000D+02  .432125142604D-08  .127954243472D+01
     .350177288055D-05  .728452601470D-02  .582821667194D-05  .515360805702D+04
     .367200000000D+06 -.193715095520D-06  .297338873348D+01  .316649675369D-07
     .971905576157D+00  .269468750000D+03 -.198715427997D+01 -.817069748520D-08
     .113933317209D-09  .100000000000D+01  .177400000000D+04  .000000000000D+00
     .240000000000D+01  .000000000000D+00 -.884756445885D-08  .150000000000D+02
     .360006000000D+06  .400000000000D+01
